start=new Date('2022-02-28T00:00:00.000Z').valueOf();
sats=[{"OBJECT_TYPE":"PAYLOAD","PERIAPSIS":"545.892","TLE_LINE2":"2 47803  53.0563 354.4605 0001920  55.1411 304.9758 15.06397380 55189","RA_OF_ASC_NODE":"354.4605","REF_FRAME":"TEME","MEAN_ELEMENT_THEORY":"SGP4","NORAD_CAT_ID":"47803","APOAPSIS":"548.551","MEAN_MOTION_DDOT":"0.0000000000000","BSTAR":"0.00017079000000","OBJECT_ID":"2021-018S","EPOCH":"2022-02-27T20:30:17.267328","DECAY_DATE":null,"INCLINATION":"53.0563","FILE":"3331200","LAUNCH_DATE":"2021-03-11","ARG_OF_PERICENTER":"55.1411","MEAN_MOTION_DOT":"0.00002263","ELEMENT_SET_NO":"999","GP_ID":"197286742","SEMIMAJOR_AXIS":"6925.357","REV_AT_EPOCH":"5518","MEAN_ANOMALY":"304.9758","CENTER_NAME":"EARTH","ECCENTRICITY":"0.00019200","TLE_LINE1":"1 47803U 21018S   22058.85436652  .00002263  00000-0  17079-3 0  9990","PERIOD":"95.592","COUNTRY_CODE":"US","CLASSIFICATION_TYPE":"U","TIME_SYSTEM":"UTC","EPHEMERIS_TYPE":"0","RCS_SIZE":"LARGE","MEAN_MOTION":"15.06397380","OBJECT_NAME":"STARLINK-2384","SITE":"AFETR"},{"TLE_LINE1":"1 47804U 21018T   22058.86911173 -.00000064  00000-0  14596-4 0  9998","CENTER_NAME":"EARTH","ECCENTRICITY":"0.00017460","MEAN_ANOMALY":"301.0377","PERIOD":"95.592","ELEMENT_SET_NO":"999","REV_AT_EPOCH":"5518","GP_ID":"197284990","SEMIMAJOR_AXIS":"6925.329","EPHEMERIS_TYPE":"0","SITE":"AFETR","OBJECT_NAME":"STARLINK-2385","MEAN_MOTION":"15.06406467","RCS_SIZE":"LARGE","CLASSIFICATION_TYPE":"U","COUNTRY_CODE":"US","TIME_SYSTEM":"UTC","REF_FRAME":"TEME","RA_OF_ASC_NODE":"354.3890","TLE_LINE2":"2 47804  53.0577 354.3890 0001746  59.0783 301.0377 15.06406467 55183","NORAD_CAT_ID":"47804","MEAN_ELEMENT_THEORY":"SGP4","PERIAPSIS":"545.985","OBJECT_TYPE":"PAYLOAD","FILE":"3331200","INCLINATION":"53.0577","DECAY_DATE":null,"MEAN_MOTION_DOT":"-0.00000064","LAUNCH_DATE":"2021-03-11","ARG_OF_PERICENTER":"59.0783","MEAN_MOTION_DDOT":"0.0000000000000","APOAPSIS":"548.403","EPOCH":"2022-02-27T20:51:31.253472","OBJECT_ID":"2021-018T","BSTAR":"0.00001459600000"},{"MEAN_MOTION_DDOT":"0.0000000000000","APOAPSIS":"548.460","EPOCH":"2022-02-27T21:06:05.090112","OBJECT_ID":"2021-018U","BSTAR":"0.00013876000000","FILE":"3331200","DECAY_DATE":null,"INCLINATION":"53.0561","LAUNCH_DATE":"2021-03-11","ARG_OF_PERICENTER":"57.4581","MEAN_MOTION_DOT":"0.00001786","PERIAPSIS":"545.950","OBJECT_TYPE":"PAYLOAD","RA_OF_ASC_NODE":"354.3376","REF_FRAME":"TEME","TLE_LINE2":"2 47805  53.0561 354.3376 0001812  57.4581 302.6583 15.06402831 55196","NORAD_CAT_ID":"47805","MEAN_ELEMENT_THEORY":"SGP4","CLASSIFICATION_TYPE":"U","COUNTRY_CODE":"US","TIME_SYSTEM":"UTC","EPHEMERIS_TYPE":"0","SITE":"AFETR","RCS_SIZE":"LARGE","OBJECT_NAME":"STARLINK-2386","MEAN_MOTION":"15.06402831","ELEMENT_SET_NO":"999","GP_ID":"197285240","SEMIMAJOR_AXIS":"6925.340","REV_AT_EPOCH":"5519","ECCENTRICITY":"0.00018120","CENTER_NAME":"EARTH","TLE_LINE1":"1 47805U 21018U   22058.87922558  .00001786  00000-0  13876-3 0  9999","MEAN_ANOMALY":"302.6583","PERIOD":"95.592"},{"CLASSIFICATION_TYPE":"U","COUNTRY_CODE":"US","TIME_SYSTEM":"UTC","EPHEMERIS_TYPE":"0","SITE":"AFETR","RCS_SIZE":"LARGE","MEAN_MOTION":"15.06403921","OBJECT_NAME":"STARLINK-2387","ELEMENT_SET_NO":"999","SEMIMAJOR_AXIS":"6925.337","GP_ID":"197286492","REV_AT_EPOCH":"5503","CENTER_NAME":"EARTH","ECCENTRICITY":"0.00020230","TLE_LINE1":"1 47806U 21018V   22058.83913910  .00002411  00000-0  18068-3 0  9992","MEAN_ANOMALY":"304.8896","PERIOD":"95.592","MEAN_MOTION_DDOT":"0.0000000000000","APOAPSIS":"548.603","OBJECT_ID":"2021-018V","EPOCH":"2022-02-27T20:08:21.618240","BSTAR":"0.00018068000000","FILE":"3331200","DECAY_DATE":null,"INCLINATION":"53.0550","LAUNCH_DATE":"2021-03-11","ARG_OF_PERICENTER":"55.2283","MEAN_MOTION_DOT":"0.00002411","PERIAPSIS":"545.801","OBJECT_TYPE":"PAYLOAD","RA_OF_ASC_NODE":"9.5260","REF_FRAME":"TEME","TLE_LINE2":"2 47806  53.0550   9.5260 0002023  55.2283 304.8896 15.06403921 55031","NORAD_CAT_ID":"47806","MEAN_ELEMENT_THEORY":"SGP4"},{"SITE":"AFETR","RCS_SIZE":"LARGE","OBJECT_NAME":"STARLINK-2388","MEAN_MOTION":"15.06387286","EPHEMERIS_TYPE":"0","TIME_SYSTEM":"UTC","CLASSIFICATION_TYPE":"U","COUNTRY_CODE":"US","PERIOD":"95.593","ECCENTRICITY":"0.00019120","CENTER_NAME":"EARTH","TLE_LINE1":"1 47807U 21018W   22058.82949544  .00001175  00000-0  97776-4 0  9994","MEAN_ANOMALY":"303.1122","SEMIMAJOR_AXIS":"6925.388","GP_ID":"197286242","REV_AT_EPOCH":"5531","ELEMENT_SET_NO":"999","ARG_OF_PERICENTER":"57.0050","LAUNCH_DATE":"2021-03-11","MEAN_MOTION_DOT":"0.00001175","FILE":"3331200","DECAY_DATE":null,"INCLINATION":"53.0570","OBJECT_ID":"2021-018W","EPOCH":"2022-02-27T19:54:28.406016","BSTAR":"0.00009777600000","MEAN_MOTION_DDOT":"0.0000000000000","APOAPSIS":"548.577","NORAD_CAT_ID":"47807","MEAN_ELEMENT_THEORY":"SGP4","RA_OF_ASC_NODE":"344.5643","REF_FRAME":"TEME","TLE_LINE2":"2 47807  53.0570 344.5643 0001912  57.0050 303.1122 15.06387286 55319","PERIAPSIS":"545.928","OBJECT_TYPE":"PAYLOAD"},{"EPOCH":"2022-02-27T20:36:15.305472","OBJECT_ID":"2021-018X","BSTAR":"0.00002945700000","MEAN_MOTION_DDOT":"0.0000000000000","APOAPSIS":"548.445","LAUNCH_DATE":"2021-03-11","ARG_OF_PERICENTER":"62.3723","MEAN_MOTION_DOT":"0.00000157","FILE":"3331200","DECAY_DATE":null,"INCLINATION":"53.0553","PERIAPSIS":"546.008","OBJECT_TYPE":"PAYLOAD","NORAD_CAT_ID":"47808","MEAN_ELEMENT_THEORY":"SGP4","RA_OF_ASC_NODE":"9.4522","REF_FRAME":"TEME","TLE_LINE2":"2 47808  53.0553   9.4522 0001760  62.3723 297.7445 15.06395748 55038","TIME_SYSTEM":"UTC","CLASSIFICATION_TYPE":"U","COUNTRY_CODE":"US","SITE":"AFETR","RCS_SIZE":"LARGE","MEAN_MOTION":"15.06395748","OBJECT_NAME":"STARLINK-2389","EPHEMERIS_TYPE":"0","SEMIMAJOR_AXIS":"6925.362","GP_ID":"197285491","REV_AT_EPOCH":"5503","ELEMENT_SET_NO":"999","PERIOD":"95.592","ECCENTRICITY":"0.00017600","CENTER_NAME":"EARTH","TLE_LINE1":"1 47808U 21018X   22058.85851048  .00000157  00000-0  29457-4 0  9999","MEAN_ANOMALY":"297.7445"},{"MEAN_MOTION_DDOT":"0.0000000000000","APOAPSIS":"548.480","OBJECT_ID":"2021-018Y","EPOCH":"2022-02-27T20:43:33.821760","BSTAR":"0.00002819400000","FILE":"3331200","INCLINATION":"53.0561","DECAY_DATE":null,"MEAN_MOTION_DOT":"0.00000138","LAUNCH_DATE":"2021-03-11","ARG_OF_PERICENTER":"59.0911","PERIAPSIS":"545.975","OBJECT_TYPE":"PAYLOAD","RA_OF_ASC_NODE":"14.4074","REF_FRAME":"TEME","TLE_LINE2":"2 47809  53.0561  14.4074 0001808  59.0911 301.0255 15.06395484 54967","NORAD_CAT_ID":"47809","MEAN_ELEMENT_THEORY":"SGP4","CLASSIFICATION_TYPE":"U","COUNTRY_CODE":"US","TIME_SYSTEM":"UTC","EPHEMERIS_TYPE":"0","SITE":"AFETR","OBJECT_NAME":"STARLINK-2390","MEAN_MOTION":"15.06395484","RCS_SIZE":"LARGE","ELEMENT_SET_NO":"999","REV_AT_EPOCH":"5496","SEMIMAJOR_AXIS":"6925.362","GP_ID":"197285741","TLE_LINE1":"1 47809U 21018Y   22058.86358590  .00000138  00000-0  28194-4 0  9991","CENTER_NAME":"EARTH","ECCENTRICITY":"0.00018080","MEAN_ANOMALY":"301.0255","PERIOD":"95.592"},{"FILE":"3331200","INCLINATION":"53.0562","DECAY_DATE":null,"MEAN_MOTION_DOT":"0.00000973","LAUNCH_DATE":"2021-03-11","ARG_OF_PERICENTER":"61.9295","MEAN_MOTION_DDOT":"0.0000000000000","APOAPSIS":"548.373","EPOCH":"2022-02-27T19:43:50.752416","OBJECT_ID":"2021-018Z","BSTAR":"0.00008419500000","REF_FRAME":"TEME","RA_OF_ASC_NODE":"24.6086","TLE_LINE2":"2 47810  53.0562  24.6086 0001649  61.9295 298.1861 15.06394356 54816","NORAD_CAT_ID":"47810","MEAN_ELEMENT_THEORY":"SGP4","PERIAPSIS":"546.089","OBJECT_TYPE":"PAYLOAD","EPHEMERIS_TYPE":"0","SITE":"AFETR","MEAN_MOTION":"15.06394356","OBJECT_NAME":"STARLINK-2391","RCS_SIZE":"LARGE","CLASSIFICATION_TYPE":"U","COUNTRY_CODE":"US","TIME_SYSTEM":"UTC","TLE_LINE1":"1 47810U 21018Z   22058.82211519  .00000973  00000-0  84195-4 0  9998","ECCENTRICITY":"0.00016490","CENTER_NAME":"EARTH","MEAN_ANOMALY":"298.1861","PERIOD":"95.592","ELEMENT_SET_NO":"999","REV_AT_EPOCH":"5481","GP_ID":"197285992","SEMIMAJOR_AXIS":"6925.366"},{"MEAN_ELEMENT_THEORY":"SGP4","NORAD_CAT_ID":"47811","TLE_LINE2":"2 47811  53.0549 355.9186 0001735  60.1933 299.9228 15.06401380 55193","RA_OF_ASC_NODE":"355.9186","REF_FRAME":"TEME","OBJECT_TYPE":"PAYLOAD","PERIAPSIS":"546.008","MEAN_MOTION_DOT":"0.00003513","ARG_OF_PERICENTER":"60.1933","LAUNCH_DATE":"2021-03-11","INCLINATION":"53.0549","DECAY_DATE":null,"FILE":"3329903","BSTAR":"0.00025464000000","EPOCH":"2022-02-27T12:43:12.693792","OBJECT_ID":"2021-018AA","APOAPSIS":"548.411","MEAN_MOTION_DDOT":"0.0000000000000","PERIOD":"95.592","MEAN_ANOMALY":"299.9228","TLE_LINE1":"1 47811U 21018AA  22058.53000803  .00003513  00000-0  25464-3 0  9995","CENTER_NAME":"EARTH","ECCENTRICITY":"0.00017350","REV_AT_EPOCH":"5519","GP_ID":"197235013","SEMIMAJOR_AXIS":"6925.344","ELEMENT_SET_NO":"999","OBJECT_NAME":"STARLINK-2392","MEAN_MOTION":"15.06401380","RCS_SIZE":"LARGE","SITE":"AFETR","EPHEMERIS_TYPE":"0","TIME_SYSTEM":"UTC","COUNTRY_CODE":"US","CLASSIFICATION_TYPE":"U"},{"GP_ID":"197284991","SEMIMAJOR_AXIS":"6925.350","REV_AT_EPOCH":"5476","ELEMENT_SET_NO":"999","PERIOD":"95.592","MEAN_ANOMALY":"299.5728","CENTER_NAME":"EARTH","ECCENTRICITY":"0.00016760","TLE_LINE1":"1 47812U 21018AB  22058.89952031  .00000341  00000-0  41776-4 0  9995","TIME_SYSTEM":"UTC","COUNTRY_CODE":"US","CLASSIFICATION_TYPE":"U","RCS_SIZE":"LARGE","MEAN_MOTION":"15.06399634","OBJECT_NAME":"STARLINK-2393","SITE":"AFETR","EPHEMERIS_TYPE":"0","OBJECT_TYPE":"PAYLOAD","PERIAPSIS":"546.054","MEAN_ELEMENT_THEORY":"SGP4","NORAD_CAT_ID":"47812","TLE_LINE2":"2 47812  53.0577  24.2526 0001676  60.5428 299.5728 15.06399634 54767","REF_FRAME":"TEME","RA_OF_ASC_NODE":"24.2526","BSTAR":"0.00004177600000","OBJECT_ID":"2021-018AB","EPOCH":"2022-02-27T21:35:18.554784","APOAPSIS":"548.375","MEAN_MOTION_DDOT":"0.0000000000000","LAUNCH_DATE":"2021-03-11","ARG_OF_PERICENTER":"60.5428","MEAN_MOTION_DOT":"0.00000341","DECAY_DATE":null,"INCLINATION":"53.0577","FILE":"3331200"}];
